PROBA-1                 
1 26958U 01049B   22225.13427947  .00000231  00000+0  24730-4 0  9999
2 26958  97.8265 185.0216 0071934 154.0273 206.4587 14.96477115132955
BIRD 2                  
1 26959U 01049C   22224.79483637  .00011764  00000+0  24697-3 0  9993
2 26959  97.7636 320.4376 0007027 159.6653 200.4876 15.45512839461884
CUTE-1 (CO-55)          
1 27844U 03031E   22224.76896108  .00000161  00000+0  91804-4 0  9992
2 27844  98.6795 231.6060 0008825 303.4935  56.5399 14.22478473991872
CUBESAT XI-IV (CO-57)   
1 27848U 03031J   22224.67918509  .00000130  00000+0  78566-4 0  9992
2 27848  98.6839 232.0254 0008911 319.4187  40.6325 14.22032099991678
GENESIS 1               
1 29252U 06029A   22224.55175159  .00002779  00000+0  12882-3 0  9995
2 29252  64.5197 246.8232 0057330 254.0530 105.4273 15.21051809887500
FALCONSAT-3             
1 30776U 07006E   22224.49239796  .00036386  00000+0  48519-3 0  9992
2 30776  35.4289 252.1611 0003877 215.8111 144.2363 15.57069968858312
GENESIS 2               
1 31789U 07028A   22224.53328735  .00002795  00000+0  13457-3 0  9998
2 31789  64.4957 290.2056 0053084 306.9252  52.7015 15.19923064834427
APRIZESAT 4             
1 35684U 09041D   22224.63254704  .00000332  00000+0  51106-4 0  9997
2 35684  98.3106 240.2030 0047033 169.9359 190.2804 14.79695342703379
APRIZESAT 3             
1 35686U 09041F   22225.18888980  .00000505  00000+0  59122-4 0  9997
2 35686  98.1065 313.1278 0072038   2.0890 358.0612 14.88003355707098
PROBA-2                 
1 36037U 09059B   22225.09403429  .00000083  00000+0  30692-4 0  9990
2 36037  98.2245  50.6240 0012240 297.2824  62.7125 14.53280994677571
APRIZESAT 5             
1 37792U 11044E   22225.11725363  .00000327  00000+0  54743-4 0  9997
2 37792  98.3171 102.1949 0057592 182.4099 177.6841 14.75806408591491
APRIZESAT 6             
1 37793U 11044F   22225.11882899  .00000294  00000+0  54081-4 0  9994
2 37793  98.3958  79.1022 0045515 234.9687 243.6300 14.72825345590354
TET-1                   
1 38710U 12039D   22224.75568089  .00059642  00000+0  37757-3 0  9991
2 38710  97.5070 309.8413 0001742 159.4950 200.6385 15.76399068566267
PROBA-V                 
1 39159U 13021A   22225.10762463  .00000024  00000+0  28945-4 0  9993
2 39159  98.3542 258.1404 0003004 291.6032  68.4827 14.23043858481381
STPSAT-3                
1 39380U 13064A   22224.82286709  .00026425  00000+0  51746-3 0  9995
2 39380  40.4975  58.4330 0007490 345.8779  14.1828 15.46727437488022
APRIZESAT 7             
1 39416U 13066A   22224.90388008  .00000483  00000+0  62611-4 0  9991
2 39416  97.5762 202.2237 0040963 169.9114 190.2933 14.84522661472449
APRIZESAT 8             
1 39425U 13066K   22224.84189727  .00000389  00000+0  54907-4 0  9995
2 39425  97.6309 193.6349 0050538 214.5395 145.2532 14.81671969471314
BUGSAT-1 (TITA)         
1 40014U 14033E   22224.95753844  .00002213  00000+0  19680-3 0  9991
2 40014  98.1429 225.6789 0029917 207.8801 152.0826 14.96891140444590
SAUDISAT 4              
1 40016U 14033G   22225.12548081  .00000230  00000+0  40390-4 0  9998
2 40016  97.6407  56.8543 0047079 318.9678  40.7994 14.75596821438776
APRIZESAT 9             
1 40018U 14033J   22225.02542996  .00000248  00000+0  47285-4 0  9997
2 40018  97.7204  32.5891 0071835  32.9327 327.6325 14.70304954437090
APRIZESAT 10            
1 40019U 14033K   22225.16200750  .00000276  00000+0  54445-4 0  9999
2 40019  97.7751  22.4846 0085285  75.6748 285.3908 14.67345822436294
TDS 1                   
1 40076U 14037H   22224.61037756  .00001411  00000+0  16904-3 0  9998
2 40076  98.3835 100.5069 0005496 246.8923 113.1711 14.85822044438046
TIANTUO 2               
1 40144U 14053B   22225.04499225  .00004737  00000+0  12685-3 0  9999
2 40144  97.1930 303.8717 0010663   4.8860 116.7377 15.38442761443795
TECHNOSAT               
1 42829U 17042E   22225.09253422  .00000814  00000+0  85342-4 0  9997
2 42829  97.4158  75.9139 0014041 171.4729 188.6732 14.91973423276537
FLYING LAPTOP           
1 42831U 17042G   22224.87133955  .00000862  00000+0  90379-4 0  9992
2 42831  97.4184  76.0354 0014015 172.5594 187.5844 14.91867981276503
HAWK-A                  
1 43765U 18099H   22224.75108414  .00001303  00000+0  11725-3 0  9999
2 43765  97.6166 291.3286 0016452  83.1727 277.1367 14.97225353201567
HAWK-B                  
1 43794U 18099AN  22225.15245486  .00001141  00000+0  10329-3 0  9996
2 43794  97.6165 291.7197 0016472  82.1517 278.1575 14.97225987201612
HAWK-C                  
1 43799U 18099AT  22225.15227739  .00001159  00000+0  10482-3 0  9991
2 43799  97.6162 291.6277 0016370  81.8975 278.4103 14.97226001201611
SALSAT                  
1 46495U 20068K   22224.82459201  .00001439  00000+0  10637-3 0  9993
2 46495  97.7315 166.1562 0018379  86.9280 273.4049 15.04704785102665
